OBJECT_NAME,OBJECT_ID,EPOCH,MEAN_MOTION,ECCENTRICITY,INCLINATION,RA_OF_ASC_NODE,ARG_OF_PERICENTER,MEAN_ANOMALY,EPHEMERIS_TYPE,CLASSIFICATION_TYPE,NORAD_CAT_ID,ELEMENT_SET_NO,REV_AT_EPOCH,BSTAR,MEAN_MOTION_DOT,MEAN_MOTION_DDOT
CUBESX-HSE 3 (RS42S),2023-091N,2026-06-04T21:17:04.313472,15.30889865,.00120298,97.5092,221.3214,132.6483,227.5774,0,U,57178,999,16254,.50647942E-3,.15085E-3,0
2023-091P,2023-091P,2026-06-04T21:05:19.255776,15.16389685,.00154675,97.5095,211.9901,162.3191,197.8584,0,U,57179,999,16192,.25149224E-3,.483E-4,0
MONITOR-3 (RS58S),2023-091Q,2026-06-04T21:13:37.294752,15.27581832,.00128879,97.5083,219.2424,138.9568,221.2643,0,U,57180,999,16241,.44122476E-3,.1186E-3,0
2023-091R,2023-091R,2026-06-04T22:30:20.348064,15.14418228,.00153557,97.5068,210.0506,173.8803,186.2620,0,U,57181,999,16183,.21299244E-3,.3856E-4,0
MONITOR-4 (RS57S),2023-091S,2026-06-04T22:18:49.974048,15.27680916,.00128334,97.5077,219.2585,139.2345,220.9857,0,U,57182,999,16242,.46433788E-3,.12523E-3,0
2023-091T,2023-091T,2026-06-04T21:13:40.237536,15.18874120,.00121953,97.5090,214.5885,147.1510,213.0485,0,U,57183,999,16210,.26832078E-3,.5536E-4,0
MONITOR-2 (RS39S),2023-091U,2026-06-04T22:14:56.421024,15.18791166,.00121362,97.5073,214.2899,149.0754,211.1197,0,U,57184,999,16209,.28556128E-3,.5882E-4,0
2023-091V,2023-091V,2026-06-04T21:13:58.762560,15.38949536,.0008115,97.5062,226.2870,118.1899,242.0166,0,U,57185,999,16288,.64205964E-3,.24743E-3,0
CSTP 1.2 (STC 1.2),2023-091W,2026-06-04T22:27:16.564032,15.28690534,.00195555,97.5150,222.0778,134.1036,226.1817,0,U,57186,999,16258,.38569825E-3,.10748E-3,0
SVYATOBOR 1 (RS60S),2023-091X,2026-06-04T22:22:41.638368,15.26397485,.00107224,97.5089,219.6832,131.4142,228.8019,0,U,57187,999,16244,.42228638E-3,.10937E-3,0
HORS 1,2023-091Y,2026-06-04T22:03:04.032288,15.26498127,.00102419,97.5068,219.4338,130.8246,229.3882,0,U,57188,999,16244,.42207985E-3,.10964E-3,0
VIZARD-METEO (RS38S),2023-091Z,2026-06-04T21:34:13.729728,15.35617444,.00087461,97.5092,225.1412,113.9484,246.2676,0,U,57189,999,16280,.538477E-3,.18609E-3,0
POLYTECH-UNIVERSE 3 (RS46S),2023-091AB,2026-06-04T21:21:34.522560,15.18991561,.00160106,97.5049,213.7578,166.6736,193.4925,0,U,57191,999,16208,.29194444E-3,.6059E-4,0
SITRO-AIS 6 (CHIRKIN),2023-091AC,2026-06-04T21:59:22.323840,15.25690581,.00127779,97.5069,218.8850,144.5279,215.6811,0,U,57192,999,16241,.46753474E-3,.11871E-3,0
SITRO-AIS 8 (ANOKHIN),2023-091AD,2026-06-04T22:30:55.539648,15.31789962,.00117444,97.5058,221.2630,137.6732,222.5418,0,U,57193,999,16257,.54441936E-3,.16684E-3,0
SITRO-AIS 7 (FARTUSHNIY),2023-091AE,2026-06-04T22:00:19.379808,15.25384627,.00126107,97.5067,218.7168,145.4239,214.7822,0,U,57194,999,16240,.46567211E-3,.11714E-3,0
AVION KALUGA 650,2023-091AF,2026-06-04T22:04:34.709952,15.20216164,.00113646,97.5091,215.5467,146.9567,213.2380,0,U,57195,999,16216,.32559776E-3,.7E-4,0
HORS 2,2023-091AG,2026-06-04T21:11:00.277440,15.31560202,.00095216,97.5089,222.7473,124.1375,236.0771,0,U,57196,999,16264,.51592995E-3,.1568E-3,0
A-SEANSAT-PG1,2023-091AH,2026-06-04T21:35:46.957920,15.36514885,.00086177,97.5082,225.2229,120.9558,239.2533,0,U,57197,999,16282,.57210153E-3,.20357E-3,0
SITRO-AIS 10 (BURDAEV),2023-091AK,2026-06-04T21:22:27.744960,15.38123994,.00079911,97.5080,226.1434,116.3362,243.8705,0,U,57199,999,16287,.6201812E-3,.23257E-3,0
2023-091AL,2023-091AL,2026-06-04T22:23:49.004448,15.45018259,.00072308,97.5053,229.8677,102.6879,257.5178,0,U,57200,999,16311,.69601114E-3,.32867E-3,0
SITRO-AIS 9 (SHCHUKIN),2023-091AM,2026-06-04T21:54:56.567808,15.37653049,.00082231,97.5078,225.9060,116.2979,243.9111,0,U,57201,999,16286,.61727785E-3,.22797E-3,0
CSTP 1.1 (STC 1.1),2023-091AN,2026-06-04T21:21:05.468832,15.18999007,.00105686,97.5116,214.7682,144.9731,215.2200,0,U,57202,999,16209,.28573648E-3,.5919E-4,0
UTMN 2 (RS27S),2023-091AP,2026-06-04T21:52:07.557312,15.31737177,.00094782,97.5088,222.9649,120.1397,240.0785,0,U,57203,999,16266,.46996164E-3,.14353E-3,0
SITRO-AIS 12 (SMIRENNIY),2023-091AQ,2026-06-04T21:44:46.139712,15.37941304,.00078721,97.5093,226.3584,111.5714,248.6370,0,U,57204,999,16288,.60980501E-3,.22729E-3,0
2023-091AS,2023-091AS,2026-06-04T21:16:54.564960,15.61459536,.00033298,97.5044,234.9732,105.0894,255.0732,0,U,57206,999,16347,.95496567E-3,.82145E-3,0
SITRO-AIS 11 (SHEFFER),2023-091AU,2026-06-04T22:08:54.963168,15.38355062,.00077949,97.5090,226.6144,111.3417,248.8661,0,U,57208,999,16290,.63302677E-3,.23921E-3,0
H2SAT (HEINRICH HERTZ),2023-093A,2026-06-04T03:17:58.373952,1.00272490,.00009749,0.0448,123.4904,332.0680,207.2004,0,U,57213,999,1078,0,.14E-6,0
SYRACUSE 4B,2023-093B,2026-06-04T22:05:09.231936,1.00273486,.0000335,0.0181,11.8935,129.5859,76.7408,0,U,57214,999,684,0,-.41E-6,0
