CUBESX-HSE 3 (RS42S)    
1 57178U 23091N   26155.88685548  .00015085  00000+0  50648-3 0  9998
2 57178  97.5092 221.3214 0012029 132.6483 227.5774 15.30889865162543
2023-091P               
1 57179U 23091P   26155.87869509  .00004830  00000+0  25149-3 0  9993
2 57179  97.5095 211.9901 0015467 162.3191 197.8584 15.16389685161928
MONITOR-3 (RS58S)       
1 57180U 23091Q   26155.88445943  .00011860  00000+0  44122-3 0  9991
2 57180  97.5083 219.2424 0012887 138.9568 221.2643 15.27581832162411
2023-091R               
1 57181U 23091R   26155.93773551  .00003856  00000+0  21299-3 0  9993
2 57181  97.5068 210.0506 0015355 173.8803 186.2620 15.14418228161832
MONITOR-4 (RS57S)       
1 57182U 23091S   26155.92974507  .00012523  00000+0  46434-3 0  9996
2 57182  97.5077 219.2585 0012833 139.2345 220.9857 15.27680916162429
2023-091T               
1 57183U 23091T   26155.88449349  .00005536  00000+0  26832-3 0  9999
2 57183  97.5090 214.5885 0012195 147.1510 213.0485 15.18874120162106
MONITOR-2 (RS39S)       
1 57184U 23091U   26155.92704191  .00005882  00000+0  28556-3 0  9993
2 57184  97.5073 214.2899 0012136 149.0754 211.1197 15.18791166162091
2023-091V               
1 57185U 23091V   26155.88470790  .00024743  00000+0  64206-3 0  9993
2 57185  97.5062 226.2870 0008115 118.1899 242.0166 15.38949536162885
CSTP 1.2 (STC 1.2)      
1 57186U 23091W   26155.93560838  .00010748  00000+0  38570-3 0  9998
2 57186  97.5150 222.0778 0019555 134.1036 226.1817 15.28690534162589
SVYATOBOR 1 (RS60S)     
1 57187U 23091X   26155.93242637  .00010937  00000+0  42229-3 0  9999
2 57187  97.5089 219.6832 0010722 131.4142 228.8019 15.26397485162444
HORS 1                  
1 57188U 23091Y   26155.91879667  .00010964  00000+0  42208-3 0  9994
2 57188  97.5068 219.4338 0010241 130.8246 229.3882 15.26498127162444
VIZARD-METEO (RS38S)    
1 57189U 23091Z   26155.89877002  .00018609  00000+0  53848-3 0  9999
2 57189  97.5092 225.1412 0008746 113.9484 246.2676 15.35617444162806
POLYTECH-UNIVERSE 3 (R*)
1 57191U 23091AB  26155.88998290  .00006059  00000+0  29194-3 0  9997
2 57191  97.5049 213.7578 0016010 166.6736 193.4925 15.18991561162081
SITRO-AIS 6 (CHIRKIN)   
1 57192U 23091AC  26155.91623060  .00011871  00000+0  46753-3 0  9990
2 57192  97.5069 218.8850 0012777 144.5279 215.6811 15.25690581162410
SITRO-AIS 8 (ANOKHIN)   
1 57193U 23091AD  26155.93814282  .00016684  00000+0  54442-3 0  9992
2 57193  97.5058 221.2630 0011744 137.6732 222.5418 15.31789962162579
SITRO-AIS 7 (FARTUSHNIY)
1 57194U 23091AE  26155.91689097  .00011714  00000+0  46567-3 0  9993
2 57194  97.5067 218.7168 0012610 145.4239 214.7822 15.25384627162405
AVION KALUGA 650        
1 57195U 23091AF  26155.91984618  .00007000  00000+0  32560-3 0  9992
2 57195  97.5091 215.5467 0011364 146.9567 213.2380 15.20216164162166
HORS 2                  
1 57196U 23091AG  26155.88264210  .00015680  00000+0  51593-3 0  9998
2 57196  97.5089 222.7473 0009521 124.1375 236.0771 15.31560202162645
A-SEANSAT-PG1           
1 57197U 23091AH  26155.89984905  .00020357  00000+0  57210-3 0  9999
2 57197  97.5082 225.2229 0008617 120.9558 239.2533 15.36514885162820
SITRO-AIS 10 (BURDAEV)  
1 57199U 23091AK  26155.89059890  .00023257  00000+0  62018-3 0  9991
2 57199  97.5080 226.1434 0007991 116.3362 243.8705 15.38123994162870
2023-091AL              
1 57200U 23091AL  26155.93320607  .00032867  00000+0  69601-3 0  9998
2 57200  97.5053 229.8677 0007230 102.6879 257.5178 15.45018259163118
SITRO-AIS 9 (SHCHUKIN)  
1 57201U 23091AM  26155.91315472  .00022797  00000+0  61728-3 0  9994
2 57201  97.5078 225.9060 0008223 116.2979 243.9111 15.37653049162864
CSTP 1.1 (STC 1.1)      
1 57202U 23091AN  26155.88964663  .00005919  00000+0  28574-3 0  9992
2 57202  97.5116 214.7682 0010568 144.9731 215.2200 15.18999007162095
UTMN 2 (RS27S)          
1 57203U 23091AP  26155.91119858  .00014353  00000+0  46996-3 0  9995
2 57203  97.5088 222.9649 0009478 120.1397 240.0785 15.31737177162660
SITRO-AIS 12 (SMIRENNIY)
1 57204U 23091AQ  26155.90608958  .00022729  00000+0  60981-3 0  9995
2 57204  97.5093 226.3584 0007872 111.5714 248.6370 15.37941304162889
2023-091AS              
1 57206U 23091AS  26155.88674265  .00082145  00000+0  95497-3 0  9996
2 57206  97.5044 234.9732 0003329 105.0894 255.0732 15.61459536163475
SITRO-AIS 11 (SHEFFER)  
1 57208U 23091AU  26155.92285837  .00023921  00000+0  63303-3 0  9994
2 57208  97.5090 226.6144 0007794 111.3417 248.8661 15.38355062162905
H2SAT (HEINRICH HERTZ)  
1 57213U 23093A   26155.13748118  .00000014  00000+0  00000+0 0  9990
2 57213   0.0448 123.4904 0000974 332.0680 207.2004  1.00272490 10787
SYRACUSE 4B             
1 57214U 23093B   26155.92024574 -.00000041  00000+0  00000+0 0  9992
2 57214   0.0181  11.8935 0000335 129.5859  76.7408  1.00273486  6849
